{"type": "FeatureCollection", "features": [ {"type": "Feature", "properties": {"norad_id": 66909, "name": "1998-067XV", "group": "stations", "lat": 8.228111058147812, "lon": -19.97956308138261, "alt_km": 411.04020673551804, "timestamp": "2025-12-07T20:38:12.884601+00:00", "meta": {"OBJECT_NAME": "1998-067XV", "OBJECT_ID": "1998-067XV", "EPOCH": "2025-12-06T23:48:09.042912", "MEAN_MOTION": 15.50609226, "ECCENTRICITY": 0.00052543, "INCLINATION": 51.6296, "RA_OF_ASC_NODE": 170.9073, "ARG_OF_PERICENTER": 195.3758, "MEAN_ANOMALY": 164.7072, "EPHEMERIS_TYPE": 0, "CLASSIFICATION_TYPE": "U", "NORAD_CAT_ID": 66909, "ELEMENT_SET_NO": 999, "REV_AT_EPOCH": 72, "BSTAR": 0.0013867176, "MEAN_MOTION_DOT": 0.00081279, "MEAN_MOTION_DDOT": 0}, "tle": {"line1": "1 66909U 98067XV  25340.99177133  .00081279  00000+0  13867-2 0  9997", "line2": "2 66909  51.6296 170.9073 0005254 195.3758 164.7072 15.50609226   724"}}, "geometry": {"type": "Point", "coordinates": [-19.97956308138261, 8.228111058147812]}}, {"type": "Feature", "properties": {"norad_id": 66910, "name": "1998-067XW", "group": "stations", "lat": 4.0987632228938, "lon": -16.66519093255047, "alt_km": 410.0243649401127, "timestamp": "2025-12-07T20:38:12.884611+00:00", "meta": {"OBJECT_NAME": "1998-067XW", "OBJECT_ID": "1998-067XW", "EPOCH": "2025-12-07T05:58:08.485248", "MEAN_MOTION": 15.50882023, "ECCENTRICITY": 0.0006057, "INCLINATION": 51.6294, "RA_OF_ASC_NODE": 169.6237, "ARG_OF_PERICENTER": 181.9065, "MEAN_ANOMALY": 178.1903, "EPHEMERIS_TYPE": 0, "CLASSIFICATION_TYPE": "U", "NORAD_CAT_ID": 66910, "ELEMENT_SET_NO": 999, "REV_AT_EPOCH": 76, "BSTAR": 0.0012693792, "MEAN_MOTION_DOT": 0.00075043, "MEAN_MOTION_DDOT": 0}, "tle": {"line1": "1 66910U 98067XW  25341.24870932  .00075043  00000+0  12694-2 0  9994", "line2": "2 66910  51.6294 169.6237 0006057 181.9065 178.1903 15.50882023   769"}}, "geometry": {"type": "Point", "coordinates": [-16.66519093255047, 4.0987632228938]}}, {"type": "Feature", "properties": {"norad_id": 66911, "name": "1998-067XX", "group": "stations", "lat": 3.3915440332465394, "lon": -16.10364422036507, "alt_km": 409.8698256464786, "timestamp": "2025-12-07T20:38:12.884620+00:00", "meta": {"OBJECT_NAME": "1998-067XX", "OBJECT_ID": "1998-067XX", "EPOCH": "2025-12-07T05:57:57.962592", "MEAN_MOTION": 15.50976339, "ECCENTRICITY": 0.000596, "INCLINATION": 51.6294, "RA_OF_ASC_NODE": 169.6228, "ARG_OF_PERICENTER": 182.6647, "MEAN_ANOMALY": 177.4311, "EPHEMERIS_TYPE": 0, "CLASSIFICATION_TYPE": "U", "NORAD_CAT_ID": 66911, "ELEMENT_SET_NO": 999, "REV_AT_EPOCH": 75, "BSTAR": 0.0014605419, "MEAN_MOTION_DOT": 0.00086834, "MEAN_MOTION_DDOT": 0}, "tle": {"line1": "1 66911U 98067XX  25341.24858753  .00086834  00000+0  14605-2 0  9996", "line2": "2 66911  51.6294 169.6228 0005960 182.6647 177.4311 15.50976339   754"}}, "geometry": {"type": "Point", "coordinates": [-16.10364422036507, 3.3915440332465394]}}, {"type": "Feature", "properties": {"norad_id": 66912, "name": "1998-067XY", "group": "stations", "lat": 10.318841743332692, "lon": -21.689650790333072, "alt_km": 411.52253202281554, "timestamp": "2025-12-07T20:38:12.884630+00:00", "meta": {"OBJECT_NAME": "1998-067XY", "OBJECT_ID": "1998-067XY", "EPOCH": "2025-12-06T19:10:11.930016", "MEAN_MOTION": 15.50363521, "ECCENTRICITY": 0.00052356, "INCLINATION": 51.6299, "RA_OF_ASC_NODE": 171.8684, "ARG_OF_PERICENTER": 194.0341, "MEAN_ANOMALY": 166.0503, "EPHEMERIS_TYPE": 0, "CLASSIFICATION_TYPE": "U", "NORAD_CAT_ID": 66912, "ELEMENT_SET_NO": 999, "REV_AT_EPOCH": 68, "BSTAR": 0.0011553511, "MEAN_MOTION_DOT": 0.00066928, "MEAN_MOTION_DDOT": 0}, "tle": {"line1": "1 66912U 98067XY  25340.79874919  .00066928  00000+0  11554-2 0  9990", "line2": "2 66912  51.6299 171.8684 0005235 194.0341 166.0503 15.50363521   686"}}, "geometry": {"type": "Point", "coordinates": [-21.689650790333072, 10.318841743332692]}}]}